NAVSTAR 48 (USA 151)    
1 26407U 00040A   26197.70188024  .00000040  00000+0  00000+0 0  9990
2 26407  54.8483 213.9898 0120479 302.7594  51.6165  2.00557873190535
NAVSTAR 51 (USA 166)    
1 27663U 03005A   26198.03515633  .00000039  00000+0  00000+0 0  9994
2 27663  54.8787 213.7828 0148317  53.1752 318.0441  2.00558941171917
NAVSTAR 54 (USA 177)    
1 28190U 04009A   26196.32288520 -.00000017  00000+0  00000+0 0  9994
2 28190  54.8064 274.5493 0117190 174.3464 193.0921  2.00553679163519
NAVSTAR 56 (USA 180)    
1 28474U 04045A   26196.65175716 -.00000092  00000+0  00000+0 0  9990
2 28474  55.1179 323.7499 0170187 317.0701 352.9112  2.00557062158997
NAVSTAR 57 (USA 183)    
1 28874U 05038A   26198.27632049 -.00000033  00000+0  00000+0 0  9999
2 28874  54.8539 271.9618 0128247 296.4391  71.1880  2.00563576152442
INMARSAT 4-F2           
1 28899U 05044A   26198.29634163 -.00000272  00000+0  00000+0 0  9999
2 28899   5.1332  43.6754 0002912  59.1292  82.4863  1.00270162 75825
NAVSTAR 58 (USA 190)    
1 29486U 06042A   26197.60658375  .00000021  00000+0  00000+0 0  9997
2 29486  54.7129 150.1709 0107228  55.1966  87.8158  2.00568138144980
NAVSTAR 59 (USA 192)    
1 29601U 06052A   26197.83514961  .00000040  00000+0  00000+0 0  9995
2 29601  54.9321 212.8309 0084747  91.0064 269.9966  2.00559745144002
NAVSTAR 60 (USA 196)    
1 32260U 07047A   26197.64231738 -.00000036  00000+0  00000+0 0  9998
2 32260  54.1169  78.8515 0167837  88.0227 273.9620  2.00553854137400
COSMOS 2433 [GLONASS-M] 
1 32275U 07052A   26197.94812885 -.00000066  00000+0  00000+0 0  9994
2 32275  65.5585 314.9323 0003584 203.6776 156.3207  2.13104076145694
COSMOS 2432 [GLONASS-M] 
1 32276U 07052B   26197.54550389 -.00000065  00000+0  00000+0 0  9998
2 32276  65.5746 315.0744 0007406 321.6777  33.2128  2.13103049145708
NAVSTAR 61 (USA 199)    
1 32384U 07062A   26197.46263501 -.00000026  00000+0  00000+0 0  9994
2 32384  55.0085 272.9745 0036065 167.5913 190.6856  2.00561660136093
COSMOS 2434 [GLONASS-M] 
1 32393U 07065A   26196.39612509  .00000054  00000+0  00000+0 0  9994
2 32393  64.3200 190.9641 0001276 327.5918 171.4568  2.13101170144375
COSMOS 2436 [GLONASS-M] 
1 32395U 07065C   26196.18930753  .00000056  00000+0  00000+0 0  9999
2 32395  64.3286 191.0436 0017314 353.5207 119.0574  2.13099957144324
NAVSTAR 62 (USA 201)    
1 32711U 08012A   26198.04938303  .00000023  00000+0  00000+0 0  9994
2 32711  54.5003 148.7318 0211693 248.1684 109.5345  2.00573180134359
NAVSTAR 64 (USA 206)    
1 35752U 09043A   26197.55459325 -.00000081  00000+0  00000+0 0  9999
2 35752  56.2287  26.2994 0053711  84.4473 285.7660  2.00552658123950
COSMOS 2456 [GLONASS-M] 
1 36111U 09070A   26197.17812943 -.00000016  00000+0  00000+0 0  9994
2 36111  65.0282  69.9837 0003619 341.3386 195.9451  2.13103565129042
COSMOS 2457 [GLONASS-M] 
1 36112U 09070B   26194.19579927 -.00000012  00000+0  00000+0 0  9992
2 36112  65.0120  69.9289 0004075 121.6619  54.8410  2.13101172128982
COSMOS 2460 [GLONASS-M] 
1 36402U 10007C   26198.18810016 -.00000066  00000+0  00000+0 0  9995
2 36402  65.4015 313.4518 0001862 145.0580 216.1345  2.13101529127379
NAVSTAR 65 (USA 213)    
1 36585U 10022A   26196.37400053  .00000049  00000+0  00000+0 0  9999
2 36585  54.2685 207.4265 0126723  66.1541 291.5416  2.00563746118156
BEIDOU-2 IGSO-1         
1 36828U 10036A   26197.87751575 -.00000119  00000+0  00000+0 0  9997
2 36828  54.3069 162.6917 0058738 225.2841 329.6485  1.00263239 58391
BEIDOU-2 G4             
1 37210U 10057A   26197.87189177 -.00000125  00000+0  00000+0 0  9996
2 37210   3.7189  68.7584 0005614 185.7562 153.9846  1.00272568 57583
BEIDOU-2 IGSO-2         
1 37256U 10068A   26197.89053965 -.00000197  00000+0  00000+0 0  9994
2 37256  47.4927 271.4611 0056840 213.7793 238.3724  1.00272868 57099
BEIDOU-2 IGSO-3         
1 37384U 11013A   26197.87729495 -.00000170  00000+0  00000+0 0  9994
2 37384  62.4493  39.8703 0035624 183.4987 133.5485  1.00260325 55957
GSAT-8                  
1 37605U 11022A   26198.19419797  .00000072  00000+0  00000+0 0  9997
2 37605   2.2069  81.4553 0002821 148.8430 189.7219  1.00280720 53510
BEIDOU-2 IGSO-4         
1 37763U 11038A   26193.91136250 -.00000017  00000+0  00000+0 0  9994
2 37763  54.6038 165.4445 0160342 231.4539 316.2369  1.00279714 54905
GSAT0101 (GALILEO-PFM)  
1 37846U 11060A   26196.59103932 -.00000101  00000+0  00000+0 0  9993
2 37846  56.9841 340.9916 0002223  61.9424 298.0655  1.70475567 91603
GSAT0102 (GALILEO-FM2)  
1 37847U 11060B   26196.51364557 -.00000101  00000+0  00000+0 0  9998
2 37847  56.9849 340.9943 0002108   7.4765 350.6813  1.70475846 91608
COSMOS 2476 [GLONASS-M] 
1 37867U 11064A   26198.24342310 -.00000023  00000+0  00000+0 0  9992
2 37867  65.2868  71.8572 0022132 235.8678 306.9990  2.13103661114406
COSMOS 2477 [GLONASS-M] 
1 37868U 11064B   26196.15395625 -.00000010  00000+0  00000+0 0  9994
2 37868  65.2921  72.0075 0019117 236.8947 323.2552  2.13102912114355
COSMOS 2475 [GLONASS-M] 
1 37869U 11064C   26197.59717102 -.00000017  00000+0  00000+0 0  9999
2 37869  65.2997  71.9806 0024799 251.1530 291.1802  2.13101724114394
